STARLINK-35871          
1 66566U 25268K   25350.58391029  .00107144  00000+0  18060-2 0  9997
2 66566  43.0013  98.6744 0001636 272.2080  87.8592 15.50598861  5223
STARLINK-35825          
1 66567U 25268L   25350.58356700  .00109173  00000+0  18347-2 0  9997
2 66567  43.0007  98.6721 0001613 261.1779  98.8899 15.50672889  5224
STARLINK-35803          
1 66568U 25268M   25350.58322470  .00110663  00000+0  18595-2 0  9996
2 66568  43.0008  98.6687 0001965 257.8965 102.1675 15.50670035  5228
STARLINK-35835          
1 66569U 25268N   25349.74548767  .00085494  00000+0  14471-2 0  9994
2 66569  43.0003 103.5637 0001377 270.1280  89.9422 15.50581218  5091
STARLINK-35834          
1 66570U 25268P   25350.91670139  .00042748  00000+0  73161-3 0  9993
2 66570  43.0006  96.7092 0001521 267.9923 159.6491 15.50536693  5338
STARLINK-35836          
1 66571U 25268Q   25349.68039079  .00066287  00000+0  11259-2 0  9991
2 66571  42.9954 103.9347 0001487 312.1791  47.8943 15.50585283  5081
STARLINK-35870          
1 66572U 25268R   25350.58185227  .00071580  00000+0  12126-2 0  9996
2 66572  43.0015  98.6590 0002317 263.9078  96.1518 15.50629626  5227
STARLINK-35650          
1 66573U 25268S   25350.64559215  .00141337  00000+0  23153-2 0  9996
2 66573  42.9964  98.2753 0002540 312.0819  47.9825 15.51253867  5230
STARLINK-35812          
1 66574U 25268T   25350.64558638  .00072934  00000+0  12313-2 0  9997
2 66574  43.0004  98.2749 0001550 319.1050  40.9693 15.50718771  5233
STARLINK-35810          
1 66575U 25268U   25350.91670139  .00048931  00000+0  83596-3 0  9991
2 66575  43.0006  96.6856 0001514 273.8704 163.3550 15.50535732  5336
STARLINK-35814          
1 66576U 25268V   25350.91670139  .00039536  00000+0  67668-3 0  9995
2 66576  43.0005  96.6805 0001641 271.8764 167.1667 15.50564389  5336
STARLINK-35815          
1 66577U 25268W   25350.64455484  .00061165  00000+0  10398-2 0  9990
2 66577  43.0044  98.2675 0003764 284.3538  75.6905 15.50586950  5234
