CCSDS_OMM_VERS = 2.0
CREATION_DATE  = 
ORIGINATOR     = 

OBJECT_NAME    = STARLINK-35871
OBJECT_ID      = 2025-268K
CENTER_NAME    = EARTH
REF_FRAME      = TEME
TIME_SYSTEM    = UTC
MEAN_ELEMENT_THEORY = SGP/SGP4

EPOCH          = 2025-12-16T14:00:49.849056
MEAN_MOTION    = 15.50598861
ECCENTRICITY   = .00016367
INCLINATION    = 43.0013
RA_OF_ASC_NODE = 98.6744
ARG_OF_PERICENTER = 272.2080
MEAN_ANOMALY   = 87.8592

EPHEMERIS_TYPE = 0
CLASSIFICATION_TYPE = U
NORAD_CAT_ID   = 66566
ELEMENT_SET_NO = 999
REV_AT_EPOCH   = 522
BSTAR          = .18059727E-2
MEAN_MOTION_DOT = .107144E-2
MEAN_MOTION_DDOT = 0

CCSDS_OMM_VERS = 2.0
CREATION_DATE  = 
ORIGINATOR     = 

OBJECT_NAME    = STARLINK-35825
OBJECT_ID      = 2025-268L
CENTER_NAME    = EARTH
REF_FRAME      = TEME
TIME_SYSTEM    = UTC
MEAN_ELEMENT_THEORY = SGP/SGP4

EPOCH          = 2025-12-16T14:00:20.188800
MEAN_MOTION    = 15.50672889
ECCENTRICITY   = .00016137
INCLINATION    = 43.0007
RA_OF_ASC_NODE = 98.6721
ARG_OF_PERICENTER = 261.1779
MEAN_ANOMALY   = 98.8899

EPHEMERIS_TYPE = 0
CLASSIFICATION_TYPE = U
NORAD_CAT_ID   = 66567
ELEMENT_SET_NO = 999
REV_AT_EPOCH   = 522
BSTAR          = .18347467E-2
MEAN_MOTION_DOT = .109173E-2
MEAN_MOTION_DDOT = 0

CCSDS_OMM_VERS = 2.0
CREATION_DATE  = 
ORIGINATOR     = 

OBJECT_NAME    = STARLINK-35803
OBJECT_ID      = 2025-268M
CENTER_NAME    = EARTH
REF_FRAME      = TEME
TIME_SYSTEM    = UTC
MEAN_ELEMENT_THEORY = SGP/SGP4

EPOCH          = 2025-12-16T13:59:50.614080
MEAN_MOTION    = 15.50670035
ECCENTRICITY   = .00019658
INCLINATION    = 43.0008
RA_OF_ASC_NODE = 98.6687
ARG_OF_PERICENTER = 257.8965
MEAN_ANOMALY   = 102.1675

EPHEMERIS_TYPE = 0
CLASSIFICATION_TYPE = U
NORAD_CAT_ID   = 66568
ELEMENT_SET_NO = 999
REV_AT_EPOCH   = 522
BSTAR          = .18595196E-2
MEAN_MOTION_DOT = .110663E-2
MEAN_MOTION_DDOT = 0

CCSDS_OMM_VERS = 2.0
CREATION_DATE  = 
ORIGINATOR     = 

OBJECT_NAME    = STARLINK-35835
OBJECT_ID      = 2025-268N
CENTER_NAME    = EARTH
REF_FRAME      = TEME
TIME_SYSTEM    = UTC
MEAN_ELEMENT_THEORY = SGP/SGP4

EPOCH          = 2025-12-15T17:53:30.134688
MEAN_MOTION    = 15.50581218
ECCENTRICITY   = .00013774
INCLINATION    = 43.0003
RA_OF_ASC_NODE = 103.5637
ARG_OF_PERICENTER = 270.1280
MEAN_ANOMALY   = 89.9422

EPHEMERIS_TYPE = 0
CLASSIFICATION_TYPE = U
NORAD_CAT_ID   = 66569
ELEMENT_SET_NO = 999
REV_AT_EPOCH   = 509
BSTAR          = .14471406E-2
MEAN_MOTION_DOT = .85494E-3
MEAN_MOTION_DDOT = 0

CCSDS_OMM_VERS = 2.0
CREATION_DATE  = 
ORIGINATOR     = 

OBJECT_NAME    = STARLINK-35834
OBJECT_ID      = 2025-268P
CENTER_NAME    = EARTH
REF_FRAME      = TEME
TIME_SYSTEM    = UTC
MEAN_ELEMENT_THEORY = SGP/SGP4

EPOCH          = 2025-12-16T22:00:03.000096
MEAN_MOTION    = 15.50536693
ECCENTRICITY   = .00015212
INCLINATION    = 43.0006
RA_OF_ASC_NODE = 96.7092
ARG_OF_PERICENTER = 267.9923
MEAN_ANOMALY   = 159.6491

EPHEMERIS_TYPE = 0
CLASSIFICATION_TYPE = U
NORAD_CAT_ID   = 66570
ELEMENT_SET_NO = 999
REV_AT_EPOCH   = 533
BSTAR          = .73161322E-3
MEAN_MOTION_DOT = .42748E-3
MEAN_MOTION_DDOT = 0

CCSDS_OMM_VERS = 2.0
CREATION_DATE  = 
ORIGINATOR     = 

OBJECT_NAME    = STARLINK-35836
OBJECT_ID      = 2025-268Q
CENTER_NAME    = EARTH
REF_FRAME      = TEME
TIME_SYSTEM    = UTC
MEAN_ELEMENT_THEORY = SGP/SGP4

EPOCH          = 2025-12-15T16:19:45.764256
MEAN_MOTION    = 15.50585283
ECCENTRICITY   = .00014873
INCLINATION    = 42.9954
RA_OF_ASC_NODE = 103.9347
ARG_OF_PERICENTER = 312.1791
MEAN_ANOMALY   = 47.8943

EPHEMERIS_TYPE = 0
CLASSIFICATION_TYPE = U
NORAD_CAT_ID   = 66571
ELEMENT_SET_NO = 999
REV_AT_EPOCH   = 508
BSTAR          = .11259195E-2
MEAN_MOTION_DOT = .66287E-3
MEAN_MOTION_DDOT = 0

CCSDS_OMM_VERS = 2.0
CREATION_DATE  = 
ORIGINATOR     = 

OBJECT_NAME    = STARLINK-35870
OBJECT_ID      = 2025-268R
CENTER_NAME    = EARTH
REF_FRAME      = TEME
TIME_SYSTEM    = UTC
MEAN_ELEMENT_THEORY = SGP/SGP4

EPOCH          = 2025-12-16T13:57:52.036128
MEAN_MOTION    = 15.50629626
ECCENTRICITY   = .00023174
INCLINATION    = 43.0015
RA_OF_ASC_NODE = 98.6590
ARG_OF_PERICENTER = 263.9078
MEAN_ANOMALY   = 96.1518

EPHEMERIS_TYPE = 0
CLASSIFICATION_TYPE = U
NORAD_CAT_ID   = 66572
ELEMENT_SET_NO = 999
REV_AT_EPOCH   = 522
BSTAR          = .12125848E-2
MEAN_MOTION_DOT = .7158E-3
MEAN_MOTION_DDOT = 0

CCSDS_OMM_VERS = 2.0
CREATION_DATE  = 
ORIGINATOR     = 

OBJECT_NAME    = STARLINK-35650
OBJECT_ID      = 2025-268S
CENTER_NAME    = EARTH
REF_FRAME      = TEME
TIME_SYSTEM    = UTC
MEAN_ELEMENT_THEORY = SGP/SGP4

EPOCH          = 2025-12-16T15:29:39.161760
MEAN_MOTION    = 15.51253867
ECCENTRICITY   = .00025406
INCLINATION    = 42.9964
RA_OF_ASC_NODE = 98.2753
ARG_OF_PERICENTER = 312.0819
MEAN_ANOMALY   = 47.9825

EPHEMERIS_TYPE = 0
CLASSIFICATION_TYPE = U
NORAD_CAT_ID   = 66573
ELEMENT_SET_NO = 999
REV_AT_EPOCH   = 523
BSTAR          = .2315295E-2
MEAN_MOTION_DOT = .141337E-2
MEAN_MOTION_DDOT = 0

CCSDS_OMM_VERS = 2.0
CREATION_DATE  = 
ORIGINATOR     = 

OBJECT_NAME    = STARLINK-35812
OBJECT_ID      = 2025-268T
CENTER_NAME    = EARTH
REF_FRAME      = TEME
TIME_SYSTEM    = UTC
MEAN_ELEMENT_THEORY = SGP/SGP4

EPOCH          = 2025-12-16T15:29:38.663232
MEAN_MOTION    = 15.50718771
ECCENTRICITY   = .00015507
INCLINATION    = 43.0004
RA_OF_ASC_NODE = 98.2749
ARG_OF_PERICENTER = 319.1050
MEAN_ANOMALY   = 40.9693

EPHEMERIS_TYPE = 0
CLASSIFICATION_TYPE = U
NORAD_CAT_ID   = 66574
ELEMENT_SET_NO = 999
REV_AT_EPOCH   = 523
BSTAR          = .1231325E-2
MEAN_MOTION_DOT = .72934E-3
MEAN_MOTION_DDOT = 0

CCSDS_OMM_VERS = 2.0
CREATION_DATE  = 
ORIGINATOR     = 

OBJECT_NAME    = STARLINK-35810
OBJECT_ID      = 2025-268U
CENTER_NAME    = EARTH
REF_FRAME      = TEME
TIME_SYSTEM    = UTC
MEAN_ELEMENT_THEORY = SGP/SGP4

EPOCH          = 2025-12-16T22:00:03.000096
MEAN_MOTION    = 15.50535732
ECCENTRICITY   = .00015144
INCLINATION    = 43.0006
RA_OF_ASC_NODE = 96.6856
ARG_OF_PERICENTER = 273.8704
MEAN_ANOMALY   = 163.3550

EPHEMERIS_TYPE = 0
CLASSIFICATION_TYPE = U
NORAD_CAT_ID   = 66575
ELEMENT_SET_NO = 999
REV_AT_EPOCH   = 533
BSTAR          = .83595893E-3
MEAN_MOTION_DOT = .48931E-3
MEAN_MOTION_DDOT = 0

CCSDS_OMM_VERS = 2.0
CREATION_DATE  = 
ORIGINATOR     = 

OBJECT_NAME    = STARLINK-35814
OBJECT_ID      = 2025-268V
CENTER_NAME    = EARTH
REF_FRAME      = TEME
TIME_SYSTEM    = UTC
MEAN_ELEMENT_THEORY = SGP/SGP4

EPOCH          = 2025-12-16T22:00:03.000096
MEAN_MOTION    = 15.50564389
ECCENTRICITY   = .00016412
INCLINATION    = 43.0005
RA_OF_ASC_NODE = 96.6805
ARG_OF_PERICENTER = 271.8764
MEAN_ANOMALY   = 167.1667

EPHEMERIS_TYPE = 0
CLASSIFICATION_TYPE = U
NORAD_CAT_ID   = 66576
ELEMENT_SET_NO = 999
REV_AT_EPOCH   = 533
BSTAR          = .6766831E-3
MEAN_MOTION_DOT = .39536E-3
MEAN_MOTION_DDOT = 0

CCSDS_OMM_VERS = 2.0
CREATION_DATE  = 
ORIGINATOR     = 

OBJECT_NAME    = STARLINK-35815
OBJECT_ID      = 2025-268W
CENTER_NAME    = EARTH
REF_FRAME      = TEME
TIME_SYSTEM    = UTC
MEAN_ELEMENT_THEORY = SGP/SGP4

EPOCH          = 2025-12-16T15:28:09.538176
MEAN_MOTION    = 15.50586950
ECCENTRICITY   = .00037645
INCLINATION    = 43.0044
RA_OF_ASC_NODE = 98.2675
ARG_OF_PERICENTER = 284.3538
MEAN_ANOMALY   = 75.6905

EPHEMERIS_TYPE = 0
CLASSIFICATION_TYPE = U
NORAD_CAT_ID   = 66577
ELEMENT_SET_NO = 999
REV_AT_EPOCH   = 523
BSTAR          = .10398035E-2
MEAN_MOTION_DOT = .61165E-3
MEAN_MOTION_DDOT = 0

